{
"type": "FeatureCollection",
"name": "erinai_week01_vector",
"crs": { "type": "name", "properties": { "name": "urn:ogc:def:crs:OGC:1.3:CRS84" } },
"features": [
{ "type": "Feature", "properties": { "ID": 1, "Stadium": "MetLife Stadium", "Current_Capacity": 82500, "CIty": "East Rutherford", "State": "New Jersey", "Country": "United States", "LAT": 40.813517, "LON": -74.074373, "Wiki_URL": "https://en.wikipedia.org/wiki/MetLife_Stadium", "Picture_URL": "https://i0.wp.com/13thmansports.ca/wp-content/uploads/2022/06/390B3B44-CB09-46DA-A358-F3FBA7042D17.jpeg?resize=768%2C408&ssl=1", "ObjectId": 1 }, "geometry": { "type": "Point", "coordinates": [ -74.074373, 40.813517 ] } },
{ "type": "Feature", "properties": { "ID": 2, "Stadium": "AT&T Stadium", "Current_Capacity": 80000, "CIty": "Arlington", "State": "Texas", "Country": "United States", "LAT": 32.747847, "LON": -97.092891, "Wiki_URL": "https://en.wikipedia.org/wiki/AT%26T_Stadium", "Picture_URL": "https://i0.wp.com/13thmansports.ca/wp-content/uploads/2022/06/49101681-76C0-4501-9431-3A331A887AAC.jpg?w=640&ssl=1", "ObjectId": 2 }, "geometry": { "type": "Point", "coordinates": [ -97.092891, 32.747847 ] } },
{ "type": "Feature", "properties": { "ID": 3, "Stadium": "Arrowhead Stadium", "Current_Capacity": 76416, "CIty": "Kansas City", "State": "Missouri", "Country": "United States", "LAT": 39.048936, "LON": -94.484003, "Wiki_URL": "https://en.wikipedia.org/wiki/Arrowhead_Stadium", "Picture_URL": "https://i0.wp.com/13thmansports.ca/wp-content/uploads/2022/06/14B9D6A9-9CB0-4C23-972A-E3C9A812E7DA.jpeg?resize=768%2C432&ssl=1", "ObjectId": 3 }, "geometry": { "type": "Point", "coordinates": [ -94.484003, 39.048936 ] } },
{ "type": "Feature", "properties": { "ID": 4, "Stadium": "NRG Stadium", "Current_Capacity": 72220, "CIty": "Houston", "State": "Texas", "Country": "United States", "LAT": 29.684833, "LON": -95.410797, "Wiki_URL": "https://en.wikipedia.org/wiki/NRG_Stadium", "Picture_URL": "https://i0.wp.com/13thmansports.ca/wp-content/uploads/2022/06/5DA50850-07EC-4A91-997D-75AECC2DCD97.jpeg?resize=768%2C432&ssl=1", "ObjectId": 4 }, "geometry": { "type": "Point", "coordinates": [ -95.410797, 29.684833 ] } },
{ "type": "Feature", "properties": { "ID": 5, "Stadium": "Mercedes-Benz Stadium", "Current_Capacity": 71000, "CIty": "Atlanta", "State": "Georgia", "Country": "United States", "LAT": 33.755342, "LON": -84.400824, "Wiki_URL": "https://en.wikipedia.org/wiki/Mercedes-Benz_Stadium", "Picture_URL": "https://i0.wp.com/13thmansports.ca/wp-content/uploads/2022/06/025B4F5E-7B19-45AE-8A1C-AE9079DBB4BE.jpeg?resize=768%2C433&ssl=1", "ObjectId": 5 }, "geometry": { "type": "Point", "coordinates": [ -84.400824, 33.755342 ] } },
{ "type": "Feature", "properties": { "ID": 6, "Stadium": "SoFi Stadium", "Current_Capacity": 70240, "CIty": "Inglewood", "State": "California", "Country": "United States", "LAT": 33.95348, "LON": -118.3391, "Wiki_URL": "https://en.wikipedia.org/wiki/SoFi_Stadium", "Picture_URL": "https://i0.wp.com/13thmansports.ca/wp-content/uploads/2022/06/E3D1BAE3-2852-4198-85B2-70388B445004.jpg?resize=768%2C439&ssl=1", "ObjectId": 6 }, "geometry": { "type": "Point", "coordinates": [ -118.3391, 33.95348 ] } },
{ "type": "Feature", "properties": { "ID": 7, "Stadium": "Lincoln Financial Field", "Current_Capacity": 69796, "CIty": "Philadelphia", "State": "Pennsylvania", "Country": "United States", "LAT": 39.900827, "LON": -75.167563, "Wiki_URL": "https://en.wikipedia.org/wiki/Lincoln_Financial_Field", "Picture_URL": "https://i0.wp.com/13thmansports.ca/wp-content/uploads/2022/06/CCC5FA9B-B8FB-4A62-9B6C-4FD8164E698B.jpeg?w=700&ssl=1", "ObjectId": 7 }, "geometry": { "type": "Point", "coordinates": [ -75.167563, 39.900827 ] } },
{ "type": "Feature", "properties": { "ID": 8, "Stadium": "Lumen Field", "Current_Capacity": 69000, "CIty": "Seattle", "State": "Washington", "Country": "United States", "LAT": 47.595117, "LON": -122.331593, "Wiki_URL": "https://en.wikipedia.org/wiki/Lumen_Field", "Picture_URL": "https://i0.wp.com/13thmansports.ca/wp-content/uploads/2022/06/1198E92B-B601-455F-ACBA-5339C690BA0F.jpeg?resize=768%2C614&ssl=1", "ObjectId": 8 }, "geometry": { "type": "Point", "coordinates": [ -122.331593, 47.595117 ] } },
{ "type": "Feature", "properties": { "ID": 9, "Stadium": "Levi’s Stadium", "Current_Capacity": 68500, "CIty": "Santa Clara", "State": "California", "Country": "United States", "LAT": 37.403139, "LON": -121.969786, "Wiki_URL": "https://en.wikipedia.org/wiki/Levi%27s_Stadium", "Picture_URL": "https://i0.wp.com/13thmansports.ca/wp-content/uploads/2022/06/4AE8BB54-6F48-4F1C-95EF-1D847DD055E2.jpg?resize=768%2C512&ssl=1", "ObjectId": 9 }, "geometry": { "type": "Point", "coordinates": [ -121.969786, 37.403139 ] } },
{ "type": "Feature", "properties": { "ID": 10, "Stadium": "Gillette Stadium", "Current_Capacity": 65878, "CIty": "Foxborough", "State": "Massachusetts", "Country": "United States", "LAT": 42.090943, "LON": -71.264404, "Wiki_URL": "https://en.wikipedia.org/wiki/Gillette_Stadium", "Picture_URL": "https://i0.wp.com/13thmansports.ca/wp-content/uploads/2022/06/24ED6E73-B123-429F-A291-220098D7AC43.jpeg?resize=768%2C511&ssl=1", "ObjectId": 10 }, "geometry": { "type": "Point", "coordinates": [ -71.264404, 42.090943 ] } },
{ "type": "Feature", "properties": { "ID": 11, "Stadium": "Hard Rock Stadium", "Current_Capacity": 64767, "CIty": "Miami Gardens", "State": "Florida", "Country": "United States", "LAT": 25.957945, "LON": -80.238858, "Wiki_URL": "https://en.wikipedia.org/wiki/Hard_Rock_Stadium", "Picture_URL": "https://i0.wp.com/13thmansports.ca/wp-content/uploads/2022/06/5D12A496-E513-40B7-A890-030061042DEA.jpeg?resize=768%2C513&ssl=1", "ObjectId": 11 }, "geometry": { "type": "Point", "coordinates": [ -80.238858, 25.957945 ] } },
{ "type": "Feature", "properties": { "ID": 12, "Stadium": "Estadio Azteca", "Current_Capacity": 87523, "CIty": "Tlalpan", "State": "Estado de Mexico", "Country": "Mexico", "LAT": 19.303088, "LON": -99.150528, "Wiki_URL": "https://en.wikipedia.org/wiki/Estadio_Azteca", "Picture_URL": "https://i0.wp.com/13thmansports.ca/wp-content/uploads/2022/06/3BE77CA4-65FA-48DB-9FBB-F3CDB96D9B61.jpeg?resize=768%2C432&ssl=1", "ObjectId": 12 }, "geometry": { "type": "Point", "coordinates": [ -99.150528, 19.303088 ] } },
{ "type": "Feature", "properties": { "ID": 13, "Stadium": "Estadio BBVA", "Current_Capacity": 53500, "CIty": "Guadalupe", "State": "Nuevo León", "Country": "Mexico", "LAT": 25.669087316494998, "LON": -100.244469683414, "Wiki_URL": "https://en.wikipedia.org/wiki/Estadio_BBVA", "Picture_URL": "https://i0.wp.com/13thmansports.ca/wp-content/uploads/2022/06/149736C5-A197-461C-94B5-FEC2D42563B7.jpeg?w=750&ssl=1", "ObjectId": 13 }, "geometry": { "type": "Point", "coordinates": [ -100.244469683413996, 25.669087316494991 ] } },
{ "type": "Feature", "properties": { "ID": 14, "Stadium": "Estadio Akron", "Current_Capacity": 49850, "CIty": "Zapopan", "State": "Jalisco", "Country": "Mexico", "LAT": 20.681790303079602, "LON": -103.46266696756599, "Wiki_URL": "https://en.wikipedia.org/wiki/Estadio_Akron", "Picture_URL": "https://i0.wp.com/13thmansports.ca/wp-content/uploads/2022/06/EFEEF4D8-0493-4EB6-85E4-2646DDCDE022.jpg?w=640&ssl=1", "ObjectId": 14 }, "geometry": { "type": "Point", "coordinates": [ -103.462666967566008, 20.681790303079595 ] } },
{ "type": "Feature", "properties": { "ID": 15, "Stadium": "BC Place", "Current_Capacity": 54500, "CIty": "Vancouver", "State": "British Columbia", "Country": "Canada", "LAT": 49.276662030518303, "LON": -123.112039169445, "Wiki_URL": "https://en.wikipedia.org/wiki/BC_Place", "Picture_URL": "https://i0.wp.com/13thmansports.ca/wp-content/uploads/2022/06/bc-place-stadium-fifa-womens-world-cup-2015-vancouver.jpg?resize=768%2C394&ssl=1", "ObjectId": 15 }, "geometry": { "type": "Point", "coordinates": [ -123.112039169444984, 49.276662030518295 ] } },
{ "type": "Feature", "properties": { "ID": 16, "Stadium": "BMO Field", "Current_Capacity": 30000, "CIty": "Toronto", "State": "Ontario", "Country": "Canada", "LAT": 43.633222, "LON": -79.418574, "Wiki_URL": "https://en.wikipedia.org/wiki/BMO_Field", "Picture_URL": "https://i0.wp.com/13thmansports.ca/wp-content/uploads/2022/06/96224424-897F-4B6F-8F19-DDD783E36873.jpeg?resize=1088%2C567&ssl=1", "ObjectId": 16 }, "geometry": { "type": "Point", "coordinates": [ -79.418574, 43.633222 ] } }
]
}
